$$SOE
2461295.500000000, A.D. 2026-Sep-12 00:00:00.0000, -2.379124632406493E+08, 1.860072008591276E+08, -9.062285064713991E+07,
2461302.500000000, A.D. 2026-Sep-19 00:00:00.0000, -2.460758259473954E+08, 1.780354098580397E+08, -8.762091663733004E+07,
2461309.500000000, A.D. 2026-Sep-26 00:00:00.0000, -2.538611322166137E+08, 1.697901216020539E+08, -8.448430120350763E+07,
2461316.500000000, A.D. 2026-Oct-03 00:00:00.0000, -2.612592355968896E+08, 1.612858904546370E+08, -8.121876385465974E+07,
2461323.500000000, A.D. 2026-Oct-10 00:00:00.0000, -2.682615363389401E+08, 1.525373484233255E+08, -7.783012385718267E+07,
2461330.500000000, A.D. 2026-Oct-17 00:00:00.0000, -2.748599669772677E+08, 1.435591973740466E+08, -7.432425616843075E+07,
2461337.500000000, A.D. 2026-Oct-24 00:00:00.0000, -2.810469788208690E+08, 1.343662024003723E+08, -7.070708795216894E+07,
2461344.500000000, A.D. 2026-Oct-31 00:00:00.0000, -2.868155292951388E+08, 1.249731861710420E+08, -6.698459564581724E+07,
2461351.500000000, A.D. 2026-Nov-07 00:00:00.0000, -2.921590698301135E+08, 1.153950242251237E+08, -6.316280256165101E+07,
2461358.500000000, A.D. 2026-Nov-14 00:00:00.0000, -2.970715341225536E+08, 1.056466420018061E+08, -5.924777692657009E+07,
2461365.500000000, A.D. 2026-Nov-21 00:00:00.0000, -3.015473286093574E+08, 9.574301418979284E+07, -5.524563009978575E+07,
2461372.500000000, A.D. 2026-Nov-28 00:00:00.0000, -3.055813261773989E+08, 8.569916329824065E+07, -5.116251508788718E+07,
2461379.500000000, A.D. 2026-Dec-05 00:00:00.0000, -3.091688595101415E+08, 7.553015671199474E+07, -4.700462570763960E+07,
2461386.500000000, A.D. 2026-Dec-12 00:00:00.0000, -3.123057139136297E+08, 6.525110525846570E+07, -4.277819611850733E+07,
2461393.500000000, A.D. 2026-Dec-19 00:00:00.0000, -3.149881215223972E+08, 5.487716320463744E+07, -3.848950051708218E+07,
2461400.500000000, A.D. 2026-Dec-26 00:00:00.0000, -3.172127570487007E+08, 4.442352873681365E+07, -3.414485302230114E+07,
2461407.500000000, A.D. 2027-Jan-02 00:00:00.0000, -3.189767348169125E+08, 3.390544465910898E+07, -2.975060776236495E+07,
2461414.500000000, A.D. 2027-Jan-09 00:00:00.0000, -3.202776069813318E+08, 2.333819925838906E+07, -2.531315914133272E+07,
2461421.500000000, A.D. 2027-Jan-16 00:00:00.0000, -3.211133629074033E+08, 1.273712727407601E+07, -2.083894225661791E+07,
2461428.500000000, A.D. 2027-Jan-23 00:00:00.0000, -3.214824296827829E+08, 2.117610866488348E+06, -1.633443344241595E+07,
2461435.500000000, A.D. 2027-Jan-30 00:00:00.0000, -3.213836735748503E+08, -8.504919530000471E+06, -1.180615092606077E+07,
2461442.500000000, A.D. 2027-Feb-06 00:00:00.0000, -3.208164020059757E+08, -1.911498420159722E+07, -7.260655574481870E+06,
2461449.500000000, A.D. 2027-Feb-13 00:00:00.0000, -3.197803665044764E+08, -2.969705186260783E+07, -2.704551558289010E+06,
2461456.500000000, A.D. 2027-Feb-20 00:00:00.0000, -3.182757690083960E+08, -4.023553695944592E+07, 1.855513245125582E+06,
2461463.500000000, A.D. 2027-Feb-27 00:00:00.0000, -3.163032701583442E+08, -5.071479987273906E+07, 6.412846745534206E+06,
2461470.500000000, A.D. 2027-Mar-06 00:00:00.0000, -3.138639965929723E+08, -6.111914817013772E+07, 1.096071194401948E+07,
2461477.500000000, A.D. 2027-Mar-13 00:00:00.0000, -3.109595488594152E+08, -7.143283693286479E+07, 1.549232640038428E+07,
2461484.500000000, A.D. 2027-Mar-20 00:00:00.0000, -3.075920110700348E+08, -8.164006907513502E+07, 2.000086193958793E+07,
2461491.500000000, A.D. 2027-Mar-27 00:00:00.0000, -3.037639621099306E+08, -9.172499629886647E+07, 2.447944457525623E+07,
2461498.500000000, A.D. 2027-Apr-03 00:00:00.0000, -2.994784881984464E+08, -1.016717208252103E+08, 2.892115467174840E+07,
2461505.500000000, A.D. 2027-Apr-10 00:00:00.0000, -2.947391967404924E+08, -1.114642979756608E+08, 3.331902738649967E+07,
2461512.500000000, A.D. 2027-Apr-17 00:00:00.0000, -2.895502314331400E+08, -1.210867397205106E+08, 3.766605343468019E+07,
2461519.500000000, A.D. 2027-Apr-24 00:00:00.0000, -2.839162885295975E+08, -1.305230193720119E+08, 4.195518020906988E+07,
2461526.500000000, A.D. 2027-May-01 00:00:00.0000, -2.778426339400930E+08, -1.397570775230775E+08, 4.617931327756136E+07,
2461533.500000000, A.D. 2027-May-08 00:00:00.0000, -2.713351208413978E+08, -1.487728286228180E+08, 5.033131834435225E+07,
2461540.500000000, A.D. 2027-May-15 00:00:00.0000, -2.644002092682120E+08, -1.575541673818812E+08, 5.440402395002482E+07,
2461547.500000000, A.D. 2027-May-22 00:00:00.0000, -2.570449892201264E+08, -1.660849777516203E+08, 5.839022490878421E+07,
2461554.500000000, A.D. 2027-May-29 00:00:00.0000, -2.492772038901294E+08, -1.743491461039751E+08, 6.228268612829604E+07,
2461561.500000000, A.D. 2027-Jun-05 00:00:00.0000, -2.411052720762325E+08, -1.823305756410447E+08, 6.607414706476516E+07,
2461568.500000000, A.D. 2027-Jun-12 00:00:00.0000, -2.325383117065958E+08, -1.900132017660996E+08, 6.975732711166930E+07,
2461575.500000000, A.D. 2027-Jun-19 00:00:00.0000, -2.235861647082436E+08, -1.973810095244330E+08, 7.332493195542750E+07,
2461582.500000000, A.D. 2027-Jun-26 00:00:00.0000, -2.142594228199030E+08, -2.044180535634653E+08, 7.676966093393110E+07,
2461589.500000000, A.D. 2027-Jul-03 00:00:00.0000, -2.045694540796436E+08, -2.111084808019960E+08, 8.008421547600061E+07,
2461596.500000000, A.D. 2027-Jul-10 00:00:00.0000, -1.945284297900915E+08, -2.174365560012551E+08, 8.326130871347888E+07,
2461603.500000000, A.D. 2027-Jul-17 00:00:00.0000, -1.841493517346725E+08, -2.233866904800756E+08, 8.629367635613559E+07,
2461610.500000000, A.D. 2027-Jul-24 00:00:00.0000, -1.734460792656618E+08, -2.289434742428145E+08, 8.917408890836236E+07,
2461617.500000000, A.D. 2027-Jul-31 00:00:00.0000, -1.624333555951999E+08, -2.340917114904701E+08, 9.189536530915423E+07,
2461624.500000000, A.D. 2027-Aug-07 00:00:00.0000, -1.511268331946473E+08, -2.388164585651120E+08, 9.445038820793183E+07,
2461631.500000000, A.D. 2027-Aug-14 00:00:00.0000, -1.395431002653480E+08, -2.431030647745748E+08, 9.683212116416305E+07,
2461638.500000000, A.D. 2027-Aug-21 00:00:00.0000, -1.276997072790827E+08, -2.469372196464280E+08, 9.903362753423825E+07,
2461645.500000000, A.D. 2027-Aug-28 00:00:00.0000, -1.156151897288443E+08, -2.503050055798735E+08, 1.010480909227601E+08,
2461652.500000000, A.D. 2027-Sep-04 00:00:00.0000, -1.033090877945524E+08, -2.531929535401486E+08, 1.028688375982319E+08,
2461659.500000000, A.D. 2027-Sep-11 00:00:00.0000, -9.080196378965616E+07, -2.555881025703288E+08, 1.044893610223547E+08,
2461666.500000000, A.D. 2027-Sep-18 00:00:00.0000, -7.811541667189458E+07, -2.574780638450851E+08, 1.059033484873860E+08,
2461673.500000000, A.D. 2027-Sep-25 00:00:00.0000, -6.527209275031128E+07, -2.588510893723637E+08, 1.071047098752405E+08,
2461680.500000000, A.D. 2027-Oct-02 00:00:00.0000, -5.229569181976220E+07, -2.596961452906561E+08, 1.080876085549803E+08,
2461687.500000000, A.D. 2027-Oct-09 00:00:00.0000, -3.921096795773194E+07, -2.600029896774932E+08, 1.088464944161984E+08,
2461694.500000000, A.D. 2027-Oct-16 00:00:00.0000, -2.604372413557050E+07, -2.597622547563716E+08, 1.093761389996766E+08,
2461701.500000000, A.D. 2027-Oct-23 00:00:00.0000, -1.282079956390816E+07, -2.589655332476653E+08, 1.096716726348821E+08,
2461708.500000000, A.D. 2027-Oct-30 00:00:00.0000, 4.299514505857647E+05, -2.576054678884642E+08, 1.097286234868611E+08,
2461715.500000000, A.D. 2027-Nov-06 00:00:00.0000, 1.367968884056925E+07, -2.556758425113511E+08, 1.095429585426299E+08,
2461722.500000000, A.D. 2027-Nov-13 00:00:00.0000, 2.689862319809812E+07, -2.531716761484407E+08, 1.091111263191159E+08,
2461729.500000000, A.D. 2027-Nov-20 00:00:00.0000, 4.005606305774639E+07, -2.500893216050982E+08, 1.084301005615358E+08,
2461736.500000000, A.D. 2027-Nov-27 00:00:00.0000, 5.312047550627244E+07, -2.464265646620198E+08, 1.074974246913342E+08,
2461743.500000000, A.D. 2027-Dec-04 00:00:00.0000, 6.605955887450543E+07, -2.421827219674085E+08, 1.063112568735807E+08,
2461750.500000000, A.D. 2027-Dec-11 00:00:00.0000, 7.884032764260541E+07, -2.373587374033136E+08, 1.048704152170564E+08,
2461757.500000000, A.D. 2027-Dec-18 00:00:00.0000, 9.142921038997132E+07, -2.319572759302936E+08, 1.031744225202557E+08,
2461764.500000000, A.D. 2027-Dec-25 00:00:00.0000, 1.037921613432043E+08, -2.259828134292898E+08, 1.012235499392541E+08,
2461771.500000000, A.D. 2028-Jan-01 00:00:00.0000, 1.158947857774886E+08, -2.194417209066774E+08, 9.901885889288683E+07,
$$EOE